{
"type": "FeatureCollection",
"name": "sy_localauthorities",
"crs": { "type": "name", "properties": { "name": "urn:ogc:def:crs:OGC:1.3:CRS84" } },
"features": [
{ "type": "Feature", "properties": { "objectid": 273.0, "lad16cd": "E08000016", "lad16nm": "Barnsley", "lad16nmw": null, "bng_e": 429979.0, "bng_n": 403327.0, "long": -1.54925001, "lat": 53.52576828, "st_areasha": 329132793.93756115, "st_lengths": 123630.67564534901 }, "geometry": { "type": "Polygon", "coordinates": [ [ [ -1.44763, 53.61274 ], [ -1.4469, 53.61236 ], [ -1.44685, 53.61262 ], [ -1.44465, 53.61053 ], [ -1.44188, 53.60944 ], [ -1.43919, 53.60706 ], [ -1.43845, 53.60717 ], [ -1.43801, 53.60672 ], [ -1.43656, 53.60655 ], [ -1.43555, 53.60811 ], [ -1.43426, 53.60811 ], [ -1.43395, 53.60867 ], [ -1.43345, 53.60853 ], [ -1.43292, 53.60894 ], [ -1.43202, 53.60845 ], [ -1.43244, 53.60818 ], [ -1.43192, 53.60821 ], [ -1.43007, 53.60681 ], [ -1.4292, 53.60659 ], [ -1.42946, 53.60554 ], [ -1.42878, 53.605 ], [ -1.4249, 53.60448 ], [ -1.42328, 53.6035 ], [ -1.42162, 53.60319 ], [ -1.41901, 53.60324 ], [ -1.41903, 53.60377 ], [ -1.41751, 53.60333 ], [ -1.41529, 53.60328 ], [ -1.41276, 53.6013 ], [ -1.40807, 53.6012 ], [ -1.40725, 53.60141 ], [ -1.40687, 53.60102 ], [ -1.40596, 53.60106 ], [ -1.40525, 53.60041 ], [ -1.40182, 53.60024 ], [ -1.40018, 53.59867 ], [ -1.39614, 53.59983 ], [ -1.39533, 53.60056 ], [ -1.39422, 53.60066 ], [ -1.39277, 53.60142 ], [ -1.38418, 53.60376 ], [ -1.3816, 53.60544 ], [ -1.37902, 53.60659 ], [ -1.3767, 53.60648 ], [ -1.37446, 53.6055 ], [ -1.37142, 53.60489 ], [ -1.36385, 53.60181 ], [ -1.36023, 53.59863 ], [ -1.35993, 53.59682 ], [ -1.35612, 53.59537 ], [ -1.35462, 53.59212 ], [ -1.35637, 53.58898 ], [ -1.35459, 53.58622 ], [ -1.3539, 53.5834 ], [ -1.35143, 53.58108 ], [ -1.34873, 53.58335 ], [ -1.34767, 53.58325 ], [ -1.34717, 53.58235 ], [ -1.34751, 53.57969 ], [ -1.34679, 53.57972 ], [ -1.34495, 53.57818 ], [ -1.34487, 53.57774 ], [ -1.34573, 53.57693 ], [ -1.34488, 53.57649 ], [ -1.34179, 53.57237 ], [ -1.33922, 53.57007 ], [ -1.33843, 53.56876 ], [ -1.3374, 53.5681 ], [ -1.33696, 53.56706 ], [ -1.3326, 53.56372 ], [ -1.33215, 53.56286 ], [ -1.33065, 53.56154 ], [ -1.32895, 53.56086 ], [ -1.32774, 53.55993 ], [ -1.32672, 53.55869 ], [ -1.32681, 53.55819 ], [ -1.32276, 53.55743 ], [ -1.32075, 53.55822 ], [ -1.3201, 53.55819 ], [ -1.31723, 53.55761 ], [ -1.31509, 53.55619 ], [ -1.30404, 53.55477 ], [ -1.30128, 53.55304 ], [ -1.29746, 53.55138 ], [ -1.29365, 53.54697 ], [ -1.28857, 53.54383 ], [ -1.28788, 53.54105 ], [ -1.28935, 53.54075 ], [ -1.28698, 53.53767 ], [ -1.29381, 53.53581 ], [ -1.28965, 53.53404 ], [ -1.28781, 53.53209 ], [ -1.28666, 53.53284 ], [ -1.28534, 53.53287 ], [ -1.28455, 53.53233 ], [ -1.28504, 53.53159 ], [ -1.28399, 53.53058 ], [ -1.28323, 53.53037 ], [ -1.28132, 53.53147 ], [ -1.28025, 53.53145 ], [ -1.27974, 53.53115 ], [ -1.27992, 53.53089 ], [ -1.27604, 53.53039 ], [ -1.27573, 53.52984 ], [ -1.27583, 53.52812 ], [ -1.2814, 53.52895 ], [ -1.28326, 53.52725 ], [ -1.28539, 53.52784 ], [ -1.28604, 53.52695 ], [ -1.28617, 53.52676 ], [ -1.2765, 53.52063 ], [ -1.27849, 53.51934 ], [ -1.28128, 53.51649 ], [ -1.28278, 53.51652 ], [ -1.28316, 53.5157 ], [ -1.28632, 53.51459 ], [ -1.2877, 53.51501 ], [ -1.28862, 53.51577 ], [ -1.2937, 53.51522 ], [ -1.29507, 53.51535 ], [ -1.2966, 53.51497 ], [ -1.29939, 53.51519 ], [ -1.30373, 53.51383 ], [ -1.30765, 53.51382 ], [ -1.31027, 53.51281 ], [ -1.3113, 53.51288 ], [ -1.31141, 53.51374 ], [ -1.31244, 53.51379 ], [ -1.31528, 53.51288 ], [ -1.31847, 53.5131 ], [ -1.31978, 53.51385 ], [ -1.32064, 53.51396 ], [ -1.32242, 53.51315 ], [ -1.32465, 53.51309 ], [ -1.32601, 53.51233 ], [ -1.33033, 53.51466 ], [ -1.33459, 53.51438 ], [ -1.34118, 53.5148 ], [ -1.34363, 53.51433 ], [ -1.34505, 53.514 ], [ -1.35028, 53.51398 ], [ -1.36015, 53.51297 ], [ -1.36888, 53.51522 ], [ -1.36931, 53.51439 ], [ -1.37058, 53.51473 ], [ -1.37813, 53.5142 ], [ -1.37905, 53.51453 ], [ -1.38079, 53.51396 ], [ -1.38965, 53.5094 ], [ -1.39699, 53.5057 ], [ -1.39631, 53.5053 ], [ -1.40558, 53.50485 ], [ -1.40554, 53.50439 ], [ -1.4072, 53.504 ], [ -1.40807, 53.50326 ], [ -1.40863, 53.50332 ], [ -1.41215, 53.49924 ], [ -1.4097, 53.49848 ], [ -1.41081, 53.49691 ], [ -1.41174, 53.49621 ], [ -1.41649, 53.49443 ], [ -1.41685, 53.49361 ], [ -1.41555, 53.49323 ], [ -1.41518, 53.49251 ], [ -1.41707, 53.49221 ], [ -1.41918, 53.49109 ], [ -1.41982, 53.49127 ], [ -1.41992, 53.48984 ], [ -1.42211, 53.4898 ], [ -1.42278, 53.49027 ], [ -1.42434, 53.48957 ], [ -1.42554, 53.48868 ], [ -1.42607, 53.4874 ], [ -1.42797, 53.48585 ], [ -1.43301, 53.48796 ], [ -1.43561, 53.48844 ], [ -1.44093, 53.49111 ], [ -1.44202, 53.49058 ], [ -1.4439, 53.48829 ], [ -1.45221, 53.48493 ], [ -1.45078, 53.48224 ], [ -1.45044, 53.47739 ], [ -1.45176, 53.47624 ], [ -1.45679, 53.47356 ], [ -1.45522, 53.47175 ], [ -1.45592, 53.47179 ], [ -1.45652, 53.47193 ], [ -1.46032, 53.47579 ], [ -1.46168, 53.47636 ], [ -1.4632, 53.47772 ], [ -1.46515, 53.4783 ], [ -1.4669, 53.47806 ], [ -1.47454, 53.47915 ], [ -1.47769, 53.47991 ], [ -1.47983, 53.48096 ], [ -1.48445, 53.4847 ], [ -1.48748, 53.48601 ], [ -1.49159, 53.48664 ], [ -1.49475, 53.48627 ], [ -1.49525, 53.48522 ], [ -1.49462, 53.48107 ], [ -1.49524, 53.48036 ], [ -1.50017, 53.47566 ], [ -1.505, 53.47178 ], [ -1.50758, 53.46844 ], [ -1.50786, 53.46662 ], [ -1.51178, 53.46576 ], [ -1.51481, 53.46367 ], [ -1.51486, 53.46181 ], [ -1.51631, 53.46059 ], [ -1.51503, 53.45964 ], [ -1.5174, 53.45833 ], [ -1.51671, 53.45794 ], [ -1.51818, 53.45724 ], [ -1.51493, 53.45387 ], [ -1.51317, 53.45142 ], [ -1.51653, 53.45029 ], [ -1.51833, 53.44932 ], [ -1.51916, 53.44728 ], [ -1.5198, 53.44712 ], [ -1.52067, 53.44579 ], [ -1.5205, 53.44496 ], [ -1.52092, 53.44435 ], [ -1.52324, 53.44308 ], [ -1.52375, 53.44131 ], [ -1.52459, 53.44049 ], [ -1.52554, 53.44026 ], [ -1.52636, 53.43907 ], [ -1.52772, 53.43855 ], [ -1.53194, 53.43872 ], [ -1.53217, 53.43834 ], [ -1.53293, 53.43832 ], [ -1.53399, 53.43861 ], [ -1.53498, 53.43994 ], [ -1.5374, 53.44088 ], [ -1.5408, 53.44098 ], [ -1.54618, 53.44189 ], [ -1.54811, 53.44479 ], [ -1.55121, 53.44615 ], [ -1.55044, 53.44763 ], [ -1.54738, 53.44989 ], [ -1.54873, 53.45113 ], [ -1.55255, 53.45278 ], [ -1.55138, 53.45545 ], [ -1.54114, 53.45592 ], [ -1.54026, 53.45616 ], [ -1.54055, 53.45698 ], [ -1.53945, 53.45773 ], [ -1.54032, 53.46105 ], [ -1.53986, 53.4616 ], [ -1.53905, 53.46172 ], [ -1.53947, 53.46258 ], [ -1.54234, 53.46502 ], [ -1.54537, 53.46985 ], [ -1.54812, 53.47133 ], [ -1.54449, 53.47221 ], [ -1.54363, 53.47267 ], [ -1.54422, 53.47275 ], [ -1.54657, 53.47463 ], [ -1.54966, 53.47849 ], [ -1.55736, 53.48027 ], [ -1.55774, 53.48224 ], [ -1.55927, 53.48357 ], [ -1.56107, 53.48396 ], [ -1.56116, 53.48444 ], [ -1.5623, 53.48437 ], [ -1.56506, 53.4849 ], [ -1.56521, 53.48548 ], [ -1.56642, 53.48586 ], [ -1.56576, 53.48604 ], [ -1.56915, 53.48647 ], [ -1.57489, 53.48602 ], [ -1.57635, 53.48617 ], [ -1.58229, 53.48757 ], [ -1.58702, 53.48816 ], [ -1.59036, 53.48999 ], [ -1.60223, 53.49191 ], [ -1.60237, 53.49159 ], [ -1.60659, 53.49291 ], [ -1.60935, 53.49167 ], [ -1.6096, 53.49226 ], [ -1.61151, 53.49321 ], [ -1.61446, 53.49315 ], [ -1.61495, 53.49057 ], [ -1.6211, 53.49183 ], [ -1.62445, 53.49213 ], [ -1.63383, 53.49239 ], [ -1.63899, 53.49337 ], [ -1.64126, 53.49408 ], [ -1.64798, 53.49482 ], [ -1.65509, 53.4968 ], [ -1.65884, 53.4984 ], [ -1.66905, 53.50067 ], [ -1.68045, 53.50052 ], [ -1.68112, 53.49993 ], [ -1.68398, 53.49889 ], [ -1.68447, 53.49947 ], [ -1.6874, 53.49904 ], [ -1.6888, 53.49912 ], [ -1.68898, 53.49969 ], [ -1.69052, 53.49984 ], [ -1.69071, 53.49946 ], [ -1.69337, 53.50019 ], [ -1.69846, 53.50254 ], [ -1.70109, 53.50312 ], [ -1.70298, 53.5029 ], [ -1.7033, 53.50185 ], [ -1.70445, 53.50173 ], [ -1.70547, 53.5011 ], [ -1.70607, 53.50169 ], [ -1.70728, 53.50136 ], [ -1.71101, 53.50126 ], [ -1.71185, 53.49981 ], [ -1.7128, 53.49962 ], [ -1.71229, 53.4987 ], [ -1.71407, 53.49786 ], [ -1.71365, 53.49667 ], [ -1.71566, 53.49547 ], [ -1.71608, 53.49408 ], [ -1.71726, 53.49394 ], [ -1.71952, 53.49293 ], [ -1.72004, 53.49235 ], [ -1.7215, 53.49263 ], [ -1.72143, 53.49198 ], [ -1.72281, 53.49153 ], [ -1.73037, 53.49132 ], [ -1.73198, 53.4909 ], [ -1.73358, 53.48809 ], [ -1.73539, 53.4866 ], [ -1.73612, 53.48379 ], [ -1.73767, 53.48157 ], [ -1.73646, 53.48061 ], [ -1.73634, 53.47938 ], [ -1.73775, 53.47765 ], [ -1.73871, 53.47715 ], [ -1.73969, 53.47722 ], [ -1.74164, 53.47825 ], [ -1.7423, 53.47904 ], [ -1.74333, 53.47934 ], [ -1.7448, 53.47898 ], [ -1.74631, 53.47899 ], [ -1.74899, 53.47986 ], [ -1.75111, 53.47992 ], [ -1.75414, 53.48065 ], [ -1.75746, 53.48105 ], [ -1.76052, 53.48076 ], [ -1.7619, 53.48125 ], [ -1.7629, 53.48111 ], [ -1.76398, 53.48141 ], [ -1.76599, 53.48108 ], [ -1.77105, 53.48243 ], [ -1.7737, 53.4825 ], [ -1.78042, 53.48437 ], [ -1.78365, 53.4848 ], [ -1.78552, 53.48478 ], [ -1.78726, 53.48438 ], [ -1.79045, 53.48251 ], [ -1.79197, 53.48199 ], [ -1.80147, 53.48099 ], [ -1.80186, 53.48655 ], [ -1.80025, 53.48811 ], [ -1.8003, 53.4928 ], [ -1.79987, 53.49301 ], [ -1.80026, 53.49336 ], [ -1.79971, 53.49355 ], [ -1.79795, 53.49339 ], [ -1.79748, 53.49388 ], [ -1.79585, 53.49429 ], [ -1.79586, 53.49527 ], [ -1.795, 53.49592 ], [ -1.79535, 53.49671 ], [ -1.79508, 53.49819 ], [ -1.79587, 53.49949 ], [ -1.79566, 53.50097 ], [ -1.79608, 53.50132 ], [ -1.79629, 53.50315 ], [ -1.79675, 53.50304 ], [ -1.7971, 53.5037 ], [ -1.79903, 53.50467 ], [ -1.80395, 53.50507 ], [ -1.80776, 53.5061 ], [ -1.8104, 53.50634 ], [ -1.80078, 53.51138 ], [ -1.80687, 53.51209 ], [ -1.80993, 53.51189 ], [ -1.8136, 53.5121 ], [ -1.81952, 53.51343 ], [ -1.82079, 53.51851 ], [ -1.82259, 53.52002 ], [ -1.82223, 53.52109 ], [ -1.80428, 53.53701 ], [ -1.8041, 53.53655 ], [ -1.80126, 53.5351 ], [ -1.79743, 53.53389 ], [ -1.79464, 53.5342 ], [ -1.7917, 53.53538 ], [ -1.7886, 53.53555 ], [ -1.78535, 53.53479 ], [ -1.77681, 53.53551 ], [ -1.77178, 53.53386 ], [ -1.76549, 53.53566 ], [ -1.75582, 53.53668 ], [ -1.7425, 53.54105 ], [ -1.74156, 53.54107 ], [ -1.74011, 53.54207 ], [ -1.7331, 53.54513 ], [ -1.73008, 53.54679 ], [ -1.72921, 53.5475 ], [ -1.72956, 53.54804 ], [ -1.7288, 53.54808 ], [ -1.72725, 53.55033 ], [ -1.72441, 53.55224 ], [ -1.72636, 53.5545 ], [ -1.72527, 53.55541 ], [ -1.72318, 53.55993 ], [ -1.70413, 53.56025 ], [ -1.69904, 53.55381 ], [ -1.6706, 53.55415 ], [ -1.66947, 53.55323 ], [ -1.6687, 53.55373 ], [ -1.6674, 53.55342 ], [ -1.66191, 53.55369 ], [ -1.66225, 53.55445 ], [ -1.6616, 53.55468 ], [ -1.66175, 53.55582 ], [ -1.66393, 53.5575 ], [ -1.66087, 53.55959 ], [ -1.66047, 53.55927 ], [ -1.65928, 53.5598 ], [ -1.65853, 53.55889 ], [ -1.65751, 53.55919 ], [ -1.65805, 53.55977 ], [ -1.65635, 53.56038 ], [ -1.65656, 53.56056 ], [ -1.65188, 53.56073 ], [ -1.65135, 53.56085 ], [ -1.65159, 53.56111 ], [ -1.6508, 53.56167 ], [ -1.64969, 53.56153 ], [ -1.64823, 53.5622 ], [ -1.64658, 53.56237 ], [ -1.6378, 53.5623 ], [ -1.63349, 53.56296 ], [ -1.6333, 53.56319 ], [ -1.62831, 53.56349 ], [ -1.62797, 53.56324 ], [ -1.62704, 53.5636 ], [ -1.62283, 53.56287 ], [ -1.6194, 53.56312 ], [ -1.61563, 53.56303 ], [ -1.61644, 53.56451 ], [ -1.61439, 53.56507 ], [ -1.61305, 53.56644 ], [ -1.61216, 53.56763 ], [ -1.61216, 53.56877 ], [ -1.61081, 53.57005 ], [ -1.60966, 53.57203 ], [ -1.60719, 53.57151 ], [ -1.60619, 53.57295 ], [ -1.59837, 53.5766 ], [ -1.5962, 53.57699 ], [ -1.59745, 53.57729 ], [ -1.60027, 53.57734 ], [ -1.59967, 53.57907 ], [ -1.59856, 53.57918 ], [ -1.59799, 53.57974 ], [ -1.59929, 53.58077 ], [ -1.6007, 53.58112 ], [ -1.60231, 53.58297 ], [ -1.60212, 53.58416 ], [ -1.60257, 53.58494 ], [ -1.6004, 53.5862 ], [ -1.60175, 53.58776 ], [ -1.59929, 53.58886 ], [ -1.59962, 53.58924 ], [ -1.59797, 53.5894 ], [ -1.59768, 53.59024 ], [ -1.59493, 53.59091 ], [ -1.59085, 53.59242 ], [ -1.58963, 53.59389 ], [ -1.58887, 53.59349 ], [ -1.58798, 53.59349 ], [ -1.58651, 53.59683 ], [ -1.58614, 53.59903 ], [ -1.58662, 53.59984 ], [ -1.5857, 53.60025 ], [ -1.58515, 53.60018 ], [ -1.58519, 53.60053 ], [ -1.58562, 53.60201 ], [ -1.5869, 53.60379 ], [ -1.58756, 53.60346 ], [ -1.58807, 53.60377 ], [ -1.59115, 53.60678 ], [ -1.58994, 53.6071 ], [ -1.58811, 53.60649 ], [ -1.58645, 53.60717 ], [ -1.58579, 53.60702 ], [ -1.58455, 53.6059 ], [ -1.58353, 53.60562 ], [ -1.58201, 53.60573 ], [ -1.58118, 53.60615 ], [ -1.58044, 53.6061 ], [ -1.5772, 53.60754 ], [ -1.57198, 53.60861 ], [ -1.56616, 53.60666 ], [ -1.56464, 53.60692 ], [ -1.56292, 53.60771 ], [ -1.56045, 53.60755 ], [ -1.55977, 53.60719 ], [ -1.5601, 53.60676 ], [ -1.55874, 53.6069 ], [ -1.5576, 53.60591 ], [ -1.55707, 53.60518 ], [ -1.55071, 53.60435 ], [ -1.54989, 53.60408 ], [ -1.54898, 53.60316 ], [ -1.54733, 53.60317 ], [ -1.54787, 53.60255 ], [ -1.54655, 53.60226 ], [ -1.54644, 53.60124 ], [ -1.54466, 53.59948 ], [ -1.54295, 53.59926 ], [ -1.54243, 53.59845 ], [ -1.5416, 53.5988 ], [ -1.54179, 53.59831 ], [ -1.54118, 53.59768 ], [ -1.53981, 53.59751 ], [ -1.53978, 53.5965 ], [ -1.53927, 53.59646 ], [ -1.53793, 53.5952 ], [ -1.53655, 53.59518 ], [ -1.53696, 53.59487 ], [ -1.53632, 53.59467 ], [ -1.53643, 53.59376 ], [ -1.5354, 53.59388 ], [ -1.53338, 53.59366 ], [ -1.53214, 53.59381 ], [ -1.53078, 53.59313 ], [ -1.53029, 53.59335 ], [ -1.53124, 53.5938 ], [ -1.52983, 53.59407 ], [ -1.52838, 53.59703 ], [ -1.52435, 53.59772 ], [ -1.51867, 53.59972 ], [ -1.51774, 53.59864 ], [ -1.51628, 53.59774 ], [ -1.51588, 53.59797 ], [ -1.5129, 53.597 ], [ -1.51087, 53.59721 ], [ -1.51036, 53.59686 ], [ -1.50986, 53.59699 ], [ -1.51046, 53.59749 ], [ -1.50838, 53.59819 ], [ -1.50805, 53.5983 ], [ -1.50723, 53.59769 ], [ -1.50139, 53.59983 ], [ -1.49656, 53.59737 ], [ -1.49512, 53.60319 ], [ -1.49158, 53.60277 ], [ -1.49291, 53.59896 ], [ -1.49213, 53.59699 ], [ -1.48949, 53.59624 ], [ -1.48509, 53.597 ], [ -1.48431, 53.59496 ], [ -1.48392, 53.59488 ], [ -1.48291, 53.59511 ], [ -1.48126, 53.59633 ], [ -1.47929, 53.59695 ], [ -1.47857, 53.59836 ], [ -1.47486, 53.60009 ], [ -1.474, 53.6014 ], [ -1.47295, 53.60083 ], [ -1.46042, 53.60604 ], [ -1.45907, 53.6062 ], [ -1.45551, 53.6077 ], [ -1.44804, 53.61169 ], [ -1.44763, 53.61274 ] ] ] } },
{ "type": "Feature", "properties": { "objectid": 274.0, "lad16cd": "E08000017", "lad16nm": "Doncaster", "lad16nmw": null, "bng_e": 459167.0, "bng_n": 403735.0, "long": -1.10894001, "lat": 53.52696991, "st_areasha": 568029182.70428741, "st_lengths": 168559.94420982627 }, "geometry": { "type": "Polygon", "coordinates": [ [ [ -0.99254, 53.65537 ], [ -0.99219, 53.65429 ], [ -0.99051, 53.65292 ], [ -0.99142, 53.6508 ], [ -0.99074, 53.64938 ], [ -0.98918, 53.64768 ], [ -0.98924, 53.64516 ], [ -0.98457, 53.63768 ], [ -0.98449, 53.63344 ], [ -0.98379, 53.63184 ], [ -0.98367, 53.62967 ], [ -0.98252, 53.62777 ], [ -0.98283, 53.62584 ], [ -0.98197, 53.62436 ], [ -0.98195, 53.62342 ], [ -0.98326, 53.6208 ], [ -0.98684, 53.61706 ], [ -0.99156, 53.614 ], [ -0.99562, 53.61216 ], [ -1.01055, 53.60876 ], [ -1.01582, 53.60752 ], [ -1.01869, 53.60675 ], [ -1.02111, 53.60558 ], [ -1.02917, 53.60419 ], [ -1.03316, 53.60178 ], [ -1.03513, 53.60156 ], [ -1.03984, 53.6021 ], [ -1.05157, 53.60175 ], [ -1.05401, 53.60105 ], [ -1.06471, 53.59628 ], [ -1.0716, 53.59466 ], [ -1.07276, 53.59478 ], [ -1.07564, 53.59588 ], [ -1.08055, 53.59554 ], [ -1.08718, 53.59477 ], [ -1.09113, 53.5922 ], [ -1.09118, 53.59082 ], [ -1.08833, 53.58825 ], [ -1.08634, 53.58714 ], [ -1.08536, 53.58519 ], [ -1.08297, 53.58346 ], [ -1.08135, 53.57189 ], [ -1.08155, 53.57094 ], [ -1.08325, 53.56898 ], [ -1.08167, 53.57063 ], [ -1.08277, 53.56719 ], [ -1.08516, 53.56575 ], [ -1.08833, 53.56546 ], [ -1.09145, 53.56359 ], [ -1.09145, 53.56168 ], [ -1.09048, 53.56014 ], [ -1.09035, 53.55851 ], [ -1.09295, 53.55356 ], [ -1.09229, 53.55396 ], [ -1.09174, 53.55569 ], [ -1.09014, 53.55811 ], [ -1.0901, 53.56009 ], [ -1.09109, 53.56173 ], [ -1.09119, 53.56345 ], [ -1.08806, 53.56531 ], [ -1.08489, 53.56561 ], [ -1.08243, 53.56707 ], [ -1.08089, 53.57247 ], [ -1.08266, 53.58351 ], [ -1.08485, 53.58502 ], [ -1.08606, 53.58723 ], [ -1.09036, 53.59018 ], [ -1.09106, 53.59154 ], [ -1.09086, 53.59207 ], [ -1.08729, 53.59438 ], [ -1.08623, 53.59471 ], [ -1.08047, 53.59528 ], [ -1.07574, 53.59553 ], [ -1.07265, 53.59436 ], [ -1.07121, 53.59443 ], [ -1.06391, 53.59622 ], [ -1.05384, 53.60075 ], [ -1.05163, 53.60146 ], [ -1.04063, 53.6018 ], [ -1.03561, 53.60136 ], [ -1.03347, 53.60145 ], [ -1.02856, 53.60409 ], [ -1.02081, 53.60534 ], [ -1.01805, 53.60674 ], [ -1.01036, 53.6085 ], [ -0.99848, 53.61126 ], [ -0.99584, 53.61183 ], [ -0.99545, 53.61198 ], [ -0.99238, 53.61328 ], [ -0.98851, 53.61538 ], [ -0.98642, 53.61695 ], [ -0.98221, 53.6218 ], [ -0.98165, 53.62328 ], [ -0.98155, 53.62437 ], [ -0.98233, 53.62567 ], [ -0.98202, 53.62779 ], [ -0.98304, 53.62937 ], [ -0.98332, 53.63223 ], [ -0.98395, 53.63346 ], [ -0.98416, 53.63799 ], [ -0.9885, 53.64475 ], [ -0.98867, 53.64786 ], [ -0.99074, 53.65047 ], [ -0.9899, 53.65291 ], [ -0.9916, 53.65451 ], [ -0.99192, 53.65571 ], [ -0.99028, 53.65789 ], [ -0.98998, 53.65898 ], [ -0.9578, 53.65853 ], [ -0.94763, 53.65866 ], [ -0.94684, 53.65914 ], [ -0.93988, 53.65758 ], [ -0.92217, 53.65252 ], [ -0.86534, 53.63771 ], [ -0.887, 53.60969 ], [ -0.8869, 53.60103 ], [ -0.89793, 53.58328 ], [ -0.89624, 53.58292 ], [ -0.90112, 53.56872 ], [ -0.891, 53.56656 ], [ -0.89186, 53.56531 ], [ -0.89387, 53.56584 ], [ -0.89431, 53.56558 ], [ -0.9003, 53.55566 ], [ -0.9005, 53.54963 ], [ -0.90127, 53.54791 ], [ -0.89983, 53.54448 ], [ -0.89559, 53.54206 ], [ -0.89227, 53.53759 ], [ -0.89731, 53.53296 ], [ -0.89807, 53.53276 ], [ -0.90044, 53.53262 ], [ -0.90819, 53.53367 ], [ -0.92526, 53.5326 ], [ -0.93433, 53.53004 ], [ -0.94372, 53.53064 ], [ -0.94654, 53.52734 ], [ -0.94606, 53.52719 ], [ -0.94847, 53.52037 ], [ -0.94792, 53.51952 ], [ -0.95001, 53.51366 ], [ -0.93209, 53.51067 ], [ -0.93577, 53.50281 ], [ -0.93536, 53.50272 ], [ -0.93556, 53.50252 ], [ -0.95326, 53.48442 ], [ -0.97687, 53.47518 ], [ -0.98163, 53.47472 ], [ -0.98598, 53.47167 ], [ -0.9833, 53.46804 ], [ -0.98555, 53.46135 ], [ -0.99365, 53.45296 ], [ -0.99118, 53.45172 ], [ -0.99431, 53.44894 ], [ -0.99482, 53.4471 ], [ -0.99752, 53.44366 ], [ -0.99713, 53.44248 ], [ -0.99848, 53.43884 ], [ -0.99592, 53.43786 ], [ -0.99567, 53.43693 ], [ -1.00038, 53.435 ], [ -1.00296, 53.43473 ], [ -1.0051, 53.4338 ], [ -1.00868, 53.4339 ], [ -1.00989, 53.43283 ], [ -1.01246, 53.4328 ], [ -1.01281, 53.43224 ], [ -1.01253, 53.43072 ], [ -1.0143, 53.42728 ], [ -1.01435, 53.4263 ], [ -1.01818, 53.42676 ], [ -1.02243, 53.42631 ], [ -1.02317, 53.42451 ], [ -1.02712, 53.42502 ], [ -1.02783, 53.42542 ], [ -1.03052, 53.4252 ], [ -1.02884, 53.42929 ], [ -1.03071, 53.42992 ], [ -1.03095, 53.43098 ], [ -1.03653, 53.43053 ], [ -1.04026, 53.42976 ], [ -1.04459, 53.42809 ], [ -1.0499, 53.42663 ], [ -1.05489, 53.42546 ], [ -1.05705, 53.42536 ], [ -1.06786, 53.42772 ], [ -1.06794, 53.42737 ], [ -1.06936, 53.42779 ], [ -1.07327, 53.42806 ], [ -1.07467, 53.42731 ], [ -1.08044, 53.42687 ], [ -1.08004, 53.42517 ], [ -1.07898, 53.42356 ], [ -1.07912, 53.42281 ], [ -1.0812, 53.42259 ], [ -1.08333, 53.42299 ], [ -1.08415, 53.42352 ], [ -1.08487, 53.42486 ], [ -1.08705, 53.42554 ], [ -1.09292, 53.42155 ], [ -1.09874, 53.41873 ], [ -1.10504, 53.40967 ], [ -1.10823, 53.40588 ], [ -1.11163, 53.40607 ], [ -1.11604, 53.40735 ], [ -1.11627, 53.40853 ], [ -1.11569, 53.40959 ], [ -1.11614, 53.41017 ], [ -1.11805, 53.41094 ], [ -1.11892, 53.41024 ], [ -1.12104, 53.4101 ], [ -1.1221, 53.41035 ], [ -1.1238, 53.40987 ], [ -1.1334, 53.40874 ], [ -1.13377, 53.40989 ], [ -1.13598, 53.41088 ], [ -1.14595, 53.41232 ], [ -1.14489, 53.41601 ], [ -1.14376, 53.41796 ], [ -1.13613, 53.42367 ], [ -1.13565, 53.42413 ], [ -1.13602, 53.42448 ], [ -1.13676, 53.42514 ], [ -1.14082, 53.42525 ], [ -1.14525, 53.42601 ], [ -1.14585, 53.42634 ], [ -1.15254, 53.42497 ], [ -1.15817, 53.42423 ], [ -1.16049, 53.42435 ], [ -1.16285, 53.42796 ], [ -1.16487, 53.42995 ], [ -1.16672, 53.43116 ], [ -1.1687, 53.43427 ], [ -1.17, 53.43523 ], [ -1.17425, 53.4354 ], [ -1.18223, 53.4339 ], [ -1.18581, 53.43377 ], [ -1.18584, 53.43527 ], [ -1.193, 53.43565 ], [ -1.19289, 53.43634 ], [ -1.19513, 53.43714 ], [ -1.19646, 53.43532 ], [ -1.19563, 53.43293 ], [ -1.19734, 53.43156 ], [ -1.19965, 53.43184 ], [ -1.20661, 53.43168 ], [ -1.20977, 53.43225 ], [ -1.21651, 53.43504 ], [ -1.22032, 53.43464 ], [ -1.22136, 53.43407 ], [ -1.22332, 53.43364 ], [ -1.22563, 53.43373 ], [ -1.22883, 53.43337 ], [ -1.23277, 53.43352 ], [ -1.2381, 53.43275 ], [ -1.2402, 53.43452 ], [ -1.23752, 53.44116 ], [ -1.25076, 53.44077 ], [ -1.25068, 53.44154 ], [ -1.25198, 53.44148 ], [ -1.25373, 53.443 ], [ -1.25341, 53.44416 ], [ -1.25381, 53.44536 ], [ -1.25312, 53.44602 ], [ -1.25181, 53.44869 ], [ -1.25482, 53.45031 ], [ -1.25566, 53.45158 ], [ -1.25673, 53.4522 ], [ -1.25821, 53.45547 ], [ -1.25806, 53.45578 ], [ -1.25694, 53.45607 ], [ -1.25237, 53.45438 ], [ -1.25213, 53.45464 ], [ -1.25309, 53.45584 ], [ -1.25638, 53.4572 ], [ -1.25714, 53.459 ], [ -1.25805, 53.45899 ], [ -1.25881, 53.45952 ], [ -1.25849, 53.4598 ], [ -1.25932, 53.46415 ], [ -1.25911, 53.46519 ], [ -1.25756, 53.46704 ], [ -1.25751, 53.46875 ], [ -1.25503, 53.47151 ], [ -1.25525, 53.47214 ], [ -1.25175, 53.47422 ], [ -1.25001, 53.47633 ], [ -1.24993, 53.47682 ], [ -1.25395, 53.4808 ], [ -1.25469, 53.48121 ], [ -1.25531, 53.48079 ], [ -1.25649, 53.48097 ], [ -1.26125, 53.48328 ], [ -1.26363, 53.48363 ], [ -1.2681, 53.48539 ], [ -1.26931, 53.48545 ], [ -1.26982, 53.48585 ], [ -1.27359, 53.48395 ], [ -1.27309, 53.48365 ], [ -1.27403, 53.48264 ], [ -1.27535, 53.48284 ], [ -1.27628, 53.48194 ], [ -1.28017, 53.48021 ], [ -1.27927, 53.47953 ], [ -1.28088, 53.47841 ], [ -1.28214, 53.47891 ], [ -1.28152, 53.47962 ], [ -1.295, 53.47658 ], [ -1.29701, 53.47517 ], [ -1.29867, 53.47572 ], [ -1.29847, 53.47653 ], [ -1.29669, 53.47735 ], [ -1.29653, 53.47813 ], [ -1.29709, 53.4791 ], [ -1.29599, 53.48052 ], [ -1.29852, 53.48167 ], [ -1.29865, 53.48311 ], [ -1.29929, 53.48318 ], [ -1.30088, 53.48256 ], [ -1.30133, 53.48347 ], [ -1.29968, 53.4846 ], [ -1.29547, 53.48515 ], [ -1.29319, 53.48575 ], [ -1.29279, 53.48646 ], [ -1.29393, 53.48771 ], [ -1.29224, 53.48864 ], [ -1.29268, 53.48975 ], [ -1.29101, 53.49059 ], [ -1.28922, 53.49042 ], [ -1.28906, 53.49104 ], [ -1.29072, 53.49115 ], [ -1.29163, 53.4913 ], [ -1.29154, 53.49169 ], [ -1.29495, 53.49193 ], [ -1.29931, 53.49308 ], [ -1.30594, 53.49602 ], [ -1.31006, 53.49793 ], [ -1.31323, 53.50199 ], [ -1.31349, 53.50303 ], [ -1.31202, 53.50797 ], [ -1.31105, 53.51182 ], [ -1.3126, 53.51325 ], [ -1.31244, 53.51379 ], [ -1.31141, 53.51374 ], [ -1.3113, 53.51288 ], [ -1.31027, 53.51281 ], [ -1.30765, 53.51382 ], [ -1.30373, 53.51383 ], [ -1.29939, 53.51519 ], [ -1.2966, 53.51497 ], [ -1.29507, 53.51535 ], [ -1.2937, 53.51522 ], [ -1.28862, 53.51577 ], [ -1.2877, 53.51501 ], [ -1.28632, 53.51459 ], [ -1.28316, 53.5157 ], [ -1.28278, 53.51652 ], [ -1.28128, 53.51649 ], [ -1.27849, 53.51934 ], [ -1.2765, 53.52063 ], [ -1.28617, 53.52676 ], [ -1.28604, 53.52695 ], [ -1.28539, 53.52784 ], [ -1.28326, 53.52725 ], [ -1.2814, 53.52895 ], [ -1.27583, 53.52812 ], [ -1.27573, 53.52984 ], [ -1.27604, 53.53039 ], [ -1.27992, 53.53089 ], [ -1.27974, 53.53115 ], [ -1.28025, 53.53145 ], [ -1.28132, 53.53147 ], [ -1.28323, 53.53037 ], [ -1.28399, 53.53058 ], [ -1.28504, 53.53159 ], [ -1.28455, 53.53233 ], [ -1.28534, 53.53287 ], [ -1.28666, 53.53284 ], [ -1.28781, 53.53209 ], [ -1.28965, 53.53404 ], [ -1.29381, 53.53581 ], [ -1.28698, 53.53767 ], [ -1.28935, 53.54075 ], [ -1.28788, 53.54105 ], [ -1.28857, 53.54383 ], [ -1.29365, 53.54697 ], [ -1.29746, 53.55138 ], [ -1.30128, 53.55304 ], [ -1.30404, 53.55477 ], [ -1.31509, 53.55619 ], [ -1.31723, 53.55761 ], [ -1.3201, 53.55819 ], [ -1.32075, 53.55822 ], [ -1.32276, 53.55743 ], [ -1.32681, 53.55819 ], [ -1.32672, 53.55869 ], [ -1.32774, 53.55993 ], [ -1.32895, 53.56086 ], [ -1.33065, 53.56154 ], [ -1.33215, 53.56286 ], [ -1.3326, 53.56372 ], [ -1.33696, 53.56706 ], [ -1.3374, 53.5681 ], [ -1.33843, 53.56876 ], [ -1.33922, 53.57007 ], [ -1.34179, 53.57237 ], [ -1.34488, 53.57649 ], [ -1.34573, 53.57693 ], [ -1.34487, 53.57774 ], [ -1.34495, 53.57818 ], [ -1.34679, 53.57972 ], [ -1.34751, 53.57969 ], [ -1.34717, 53.58235 ], [ -1.34767, 53.58325 ], [ -1.34873, 53.58335 ], [ -1.34777, 53.58419 ], [ -1.34641, 53.58399 ], [ -1.34115, 53.58242 ], [ -1.3403, 53.58182 ], [ -1.33875, 53.5817 ], [ -1.33791, 53.58114 ], [ -1.33634, 53.58105 ], [ -1.335, 53.58 ], [ -1.33321, 53.57941 ], [ -1.32828, 53.57913 ], [ -1.32642, 53.57933 ], [ -1.32487, 53.57991 ], [ -1.32424, 53.57962 ], [ -1.32213, 53.57965 ], [ -1.31843, 53.57747 ], [ -1.31417, 53.57672 ], [ -1.31177, 53.57667 ], [ -1.30998, 53.57578 ], [ -1.30782, 53.57537 ], [ -1.29864, 53.57746 ], [ -1.29681, 53.57797 ], [ -1.29586, 53.57845 ], [ -1.29604, 53.57875 ], [ -1.29539, 53.57868 ], [ -1.29526, 53.579 ], [ -1.29455, 53.57903 ], [ -1.29459, 53.57935 ], [ -1.29402, 53.57928 ], [ -1.2926, 53.57982 ], [ -1.29104, 53.57984 ], [ -1.28959, 53.5803 ], [ -1.28957, 53.58057 ], [ -1.28825, 53.58073 ], [ -1.28603, 53.58237 ], [ -1.28378, 53.58295 ], [ -1.28229, 53.58302 ], [ -1.28147, 53.58375 ], [ -1.2801, 53.58429 ], [ -1.27934, 53.5854 ], [ -1.27833, 53.58547 ], [ -1.27782, 53.58604 ], [ -1.2794, 53.58763 ], [ -1.27669, 53.58998 ], [ -1.27538, 53.58975 ], [ -1.27438, 53.58989 ], [ -1.27389, 53.58944 ], [ -1.27277, 53.5898 ], [ -1.27289, 53.59014 ], [ -1.2707, 53.59012 ], [ -1.27048, 53.58987 ], [ -1.27029, 53.5901 ], [ -1.2694, 53.59008 ], [ -1.26937, 53.58975 ], [ -1.2682, 53.5895 ], [ -1.26697, 53.59012 ], [ -1.26606, 53.5898 ], [ -1.26551, 53.5907 ], [ -1.26422, 53.59132 ], [ -1.26284, 53.59083 ], [ -1.26275, 53.59127 ], [ -1.26203, 53.5912 ], [ -1.2622, 53.59157 ], [ -1.26103, 53.5914 ], [ -1.26048, 53.59191 ], [ -1.25803, 53.592 ], [ -1.25673, 53.59306 ], [ -1.25806, 53.59486 ], [ -1.25291, 53.59712 ], [ -1.2536, 53.59755 ], [ -1.25484, 53.59692 ], [ -1.25734, 53.59809 ], [ -1.25543, 53.59891 ], [ -1.25572, 53.59912 ], [ -1.25779, 53.59834 ], [ -1.25839, 53.59876 ], [ -1.25759, 53.59905 ], [ -1.25764, 53.59985 ], [ -1.25399, 53.60067 ], [ -1.25026, 53.60111 ], [ -1.24989, 53.60065 ], [ -1.25108, 53.60039 ], [ -1.25061, 53.59979 ], [ -1.24721, 53.60071 ], [ -1.24896, 53.60193 ], [ -1.25069, 53.60404 ], [ -1.2522, 53.60711 ], [ -1.24486, 53.60816 ], [ -1.24825, 53.61635 ], [ -1.24413, 53.6171 ], [ -1.23656, 53.61705 ], [ -1.23333, 53.61667 ], [ -1.2313, 53.61691 ], [ -1.22917, 53.61688 ], [ -1.22789, 53.61734 ], [ -1.22848, 53.61753 ], [ -1.22864, 53.61828 ], [ -1.2295, 53.61896 ], [ -1.23123, 53.61886 ], [ -1.23284, 53.62111 ], [ -1.22791, 53.62216 ], [ -1.22667, 53.62197 ], [ -1.22143, 53.62348 ], [ -1.21884, 53.62357 ], [ -1.21747, 53.62422 ], [ -1.21736, 53.6291 ], [ -1.21837, 53.6314 ], [ -1.21847, 53.63317 ], [ -1.21895, 53.63332 ], [ -1.219, 53.63441 ], [ -1.21964, 53.63449 ], [ -1.21939, 53.63669 ], [ -1.2186, 53.63662 ], [ -1.21768, 53.6402 ], [ -1.2163, 53.64001 ], [ -1.21565, 53.64198 ], [ -1.21089, 53.64096 ], [ -1.20983, 53.64316 ], [ -1.20813, 53.64272 ], [ -1.20532, 53.64261 ], [ -1.19847, 53.64025 ], [ -1.19763, 53.63975 ], [ -1.19723, 53.63897 ], [ -1.19611, 53.63898 ], [ -1.19452, 53.63811 ], [ -1.1937, 53.63639 ], [ -1.19031, 53.63592 ], [ -1.18857, 53.63599 ], [ -1.1797, 53.63789 ], [ -1.17445, 53.63817 ], [ -1.17239, 53.63942 ], [ -1.17037, 53.63936 ], [ -1.16777, 53.6408 ], [ -1.1654, 53.64085 ], [ -1.16313, 53.64186 ], [ -1.16138, 53.64177 ], [ -1.15879, 53.64343 ], [ -1.15555, 53.64322 ], [ -1.1533, 53.64267 ], [ -1.1523, 53.64278 ], [ -1.14966, 53.63882 ], [ -1.14574, 53.63855 ], [ -1.14484, 53.63722 ], [ -1.14352, 53.63635 ], [ -1.14012, 53.63562 ], [ -1.1389, 53.63347 ], [ -1.13541, 53.63273 ], [ -1.13344, 53.63351 ], [ -1.13057, 53.63387 ], [ -1.12887, 53.63495 ], [ -1.12708, 53.63856 ], [ -1.12848, 53.64082 ], [ -1.129, 53.64299 ], [ -1.12804, 53.64357 ], [ -1.125, 53.64398 ], [ -1.12312, 53.64602 ], [ -1.12174, 53.64672 ], [ -1.11935, 53.64684 ], [ -1.117, 53.64588 ], [ -1.11605, 53.6458 ], [ -1.11383, 53.64691 ], [ -1.1016, 53.64859 ], [ -1.09512, 53.64999 ], [ -1.09046, 53.64987 ], [ -1.08701, 53.65134 ], [ -1.08482, 53.65173 ], [ -1.08256, 53.65157 ], [ -1.07117, 53.64894 ], [ -1.06607, 53.64889 ], [ -1.05328, 53.65154 ], [ -1.05172, 53.65253 ], [ -1.05048, 53.65495 ], [ -1.04866, 53.65606 ], [ -1.04635, 53.65672 ], [ -1.04449, 53.65676 ], [ -1.04129, 53.65603 ], [ -1.03879, 53.65481 ], [ -1.03722, 53.6545 ], [ -1.03334, 53.65521 ], [ -1.02936, 53.65497 ], [ -1.02345, 53.65697 ], [ -1.019, 53.65798 ], [ -1.00997, 53.65878 ], [ -0.99881, 53.65869 ], [ -0.991, 53.66119 ], [ -0.99061, 53.65857 ], [ -0.99223, 53.6566 ], [ -0.99254, 53.65537 ] ] ] } },
{ "type": "Feature", "properties": { "objectid": 275.0, "lad16cd": "E08000018", "lad16nm": "Rotherham", "lad16nmw": null, "bng_e": 447542.0, "bng_n": 388980.0, "long": -1.28650999, "lat": 53.3955307, "st_areasha": 286456470.19945347, "st_lengths": 103583.08925347652 }, "geometry": { "type": "Polygon", "coordinates": [ [ [ -1.36888, 53.51522 ], [ -1.36015, 53.51297 ], [ -1.35028, 53.51398 ], [ -1.34505, 53.514 ], [ -1.34363, 53.51433 ], [ -1.34118, 53.5148 ], [ -1.33459, 53.51438 ], [ -1.33033, 53.51466 ], [ -1.32601, 53.51233 ], [ -1.32465, 53.51309 ], [ -1.32242, 53.51315 ], [ -1.32064, 53.51396 ], [ -1.31978, 53.51385 ], [ -1.31847, 53.5131 ], [ -1.31528, 53.51288 ], [ -1.31244, 53.51379 ], [ -1.3126, 53.51325 ], [ -1.31105, 53.51182 ], [ -1.31202, 53.50797 ], [ -1.31349, 53.50303 ], [ -1.31323, 53.50199 ], [ -1.31006, 53.49793 ], [ -1.30594, 53.49602 ], [ -1.29931, 53.49308 ], [ -1.29495, 53.49193 ], [ -1.29154, 53.49169 ], [ -1.29163, 53.4913 ], [ -1.29072, 53.49115 ], [ -1.28906, 53.49104 ], [ -1.28922, 53.49042 ], [ -1.29101, 53.49059 ], [ -1.29268, 53.48975 ], [ -1.29224, 53.48864 ], [ -1.29393, 53.48771 ], [ -1.29279, 53.48646 ], [ -1.29319, 53.48575 ], [ -1.29547, 53.48515 ], [ -1.29968, 53.4846 ], [ -1.30133, 53.48347 ], [ -1.30088, 53.48256 ], [ -1.29929, 53.48318 ], [ -1.29865, 53.48311 ], [ -1.29852, 53.48167 ], [ -1.29599, 53.48052 ], [ -1.29709, 53.4791 ], [ -1.29653, 53.47813 ], [ -1.29669, 53.47735 ], [ -1.29847, 53.47653 ], [ -1.29867, 53.47572 ], [ -1.29701, 53.47517 ], [ -1.295, 53.47658 ], [ -1.28152, 53.47962 ], [ -1.28214, 53.47891 ], [ -1.28088, 53.47841 ], [ -1.27927, 53.47953 ], [ -1.28017, 53.48021 ], [ -1.27628, 53.48194 ], [ -1.27535, 53.48284 ], [ -1.27403, 53.48264 ], [ -1.27309, 53.48365 ], [ -1.27359, 53.48395 ], [ -1.26982, 53.48585 ], [ -1.26931, 53.48545 ], [ -1.2681, 53.48539 ], [ -1.26363, 53.48363 ], [ -1.26125, 53.48328 ], [ -1.25649, 53.48097 ], [ -1.25531, 53.48079 ], [ -1.25469, 53.48121 ], [ -1.25395, 53.4808 ], [ -1.24993, 53.47682 ], [ -1.25001, 53.47633 ], [ -1.25175, 53.47422 ], [ -1.25525, 53.47214 ], [ -1.25503, 53.47151 ], [ -1.25751, 53.46875 ], [ -1.25756, 53.46704 ], [ -1.25911, 53.46519 ], [ -1.25932, 53.46415 ], [ -1.25849, 53.4598 ], [ -1.25881, 53.45952 ], [ -1.25805, 53.45899 ], [ -1.25714, 53.459 ], [ -1.25638, 53.4572 ], [ -1.25309, 53.45584 ], [ -1.25213, 53.45464 ], [ -1.25237, 53.45438 ], [ -1.25694, 53.45607 ], [ -1.25806, 53.45578 ], [ -1.25821, 53.45547 ], [ -1.25673, 53.4522 ], [ -1.25566, 53.45158 ], [ -1.25482, 53.45031 ], [ -1.25181, 53.44869 ], [ -1.25312, 53.44602 ], [ -1.25381, 53.44536 ], [ -1.25341, 53.44416 ], [ -1.25373, 53.443 ], [ -1.25198, 53.44148 ], [ -1.25068, 53.44154 ], [ -1.25076, 53.44077 ], [ -1.23752, 53.44116 ], [ -1.2402, 53.43452 ], [ -1.2381, 53.43275 ], [ -1.23277, 53.43352 ], [ -1.22883, 53.43337 ], [ -1.22563, 53.43373 ], [ -1.22332, 53.43364 ], [ -1.22136, 53.43407 ], [ -1.22032, 53.43464 ], [ -1.21651, 53.43504 ], [ -1.20977, 53.43225 ], [ -1.20661, 53.43168 ], [ -1.19965, 53.43184 ], [ -1.19734, 53.43156 ], [ -1.19563, 53.43293 ], [ -1.19646, 53.43532 ], [ -1.19513, 53.43714 ], [ -1.19289, 53.43634 ], [ -1.193, 53.43565 ], [ -1.18584, 53.43527 ], [ -1.18581, 53.43377 ], [ -1.18223, 53.4339 ], [ -1.17425, 53.4354 ], [ -1.17, 53.43523 ], [ -1.1687, 53.43427 ], [ -1.16672, 53.43116 ], [ -1.16487, 53.42995 ], [ -1.16285, 53.42796 ], [ -1.16049, 53.42435 ], [ -1.15817, 53.42423 ], [ -1.15254, 53.42497 ], [ -1.14585, 53.42634 ], [ -1.14525, 53.42601 ], [ -1.14082, 53.42525 ], [ -1.13676, 53.42514 ], [ -1.13602, 53.42448 ], [ -1.13565, 53.42413 ], [ -1.13613, 53.42367 ], [ -1.14376, 53.41796 ], [ -1.14489, 53.41601 ], [ -1.14595, 53.41232 ], [ -1.13598, 53.41088 ], [ -1.13377, 53.40989 ], [ -1.1334, 53.40874 ], [ -1.1238, 53.40987 ], [ -1.1221, 53.41035 ], [ -1.12104, 53.4101 ], [ -1.11892, 53.41024 ], [ -1.11805, 53.41094 ], [ -1.11614, 53.41017 ], [ -1.11569, 53.40959 ], [ -1.11627, 53.40853 ], [ -1.11604, 53.40735 ], [ -1.11514, 53.40186 ], [ -1.11592, 53.39802 ], [ -1.11558, 53.39719 ], [ -1.11947, 53.39805 ], [ -1.12281, 53.39831 ], [ -1.12921, 53.3936 ], [ -1.13151, 53.39394 ], [ -1.13321, 53.39241 ], [ -1.1329, 53.39229 ], [ -1.13328, 53.39138 ], [ -1.13349, 53.39148 ], [ -1.13469, 53.38977 ], [ -1.13131, 53.38956 ], [ -1.13093, 53.38823 ], [ -1.13095, 53.38556 ], [ -1.13245, 53.38398 ], [ -1.13305, 53.38159 ], [ -1.1305, 53.37889 ], [ -1.13099, 53.37798 ], [ -1.13, 53.37757 ], [ -1.13054, 53.37557 ], [ -1.1319, 53.37562 ], [ -1.13196, 53.3749 ], [ -1.13366, 53.37487 ], [ -1.13419, 53.37417 ], [ -1.13414, 53.37323 ], [ -1.13822, 53.37225 ], [ -1.14074, 53.37202 ], [ -1.14046, 53.37126 ], [ -1.1414, 53.37071 ], [ -1.1428, 53.37127 ], [ -1.14492, 53.37125 ], [ -1.14603, 53.36904 ], [ -1.14421, 53.36827 ], [ -1.14423, 53.36738 ], [ -1.14566, 53.36661 ], [ -1.14588, 53.36585 ], [ -1.14644, 53.36573 ], [ -1.14642, 53.36395 ], [ -1.14518, 53.36338 ], [ -1.14055, 53.36406 ], [ -1.14012, 53.36262 ], [ -1.13898, 53.36139 ], [ -1.13924, 53.35986 ], [ -1.13854, 53.35591 ], [ -1.14495, 53.35533 ], [ -1.14528, 53.35486 ], [ -1.1491, 53.35435 ], [ -1.15169, 53.35449 ], [ -1.16195, 53.35791 ], [ -1.16262, 53.35674 ], [ -1.16162, 53.3557 ], [ -1.16195, 53.35421 ], [ -1.16242, 53.35161 ], [ -1.16182, 53.35089 ], [ -1.15987, 53.34997 ], [ -1.1601, 53.34894 ], [ -1.15815, 53.3477 ], [ -1.15688, 53.34586 ], [ -1.15684, 53.34497 ], [ -1.15267, 53.34468 ], [ -1.14957, 53.34531 ], [ -1.14818, 53.34521 ], [ -1.14491, 53.3457 ], [ -1.14155, 53.3468 ], [ -1.14029, 53.34653 ], [ -1.13936, 53.34473 ], [ -1.13872, 53.34138 ], [ -1.14091, 53.34097 ], [ -1.14542, 53.34073 ], [ -1.14862, 53.33851 ], [ -1.15938, 53.33351 ], [ -1.16051, 53.33233 ], [ -1.16087, 53.33112 ], [ -1.16388, 53.32928 ], [ -1.16587, 53.32911 ], [ -1.1689, 53.32824 ], [ -1.16978, 53.32741 ], [ -1.17108, 53.32723 ], [ -1.17148, 53.32652 ], [ -1.17219, 53.32692 ], [ -1.17248, 53.32655 ], [ -1.17346, 53.32639 ], [ -1.17388, 53.32574 ], [ -1.17511, 53.32568 ], [ -1.17531, 53.32451 ], [ -1.17405, 53.32359 ], [ -1.17204, 53.32276 ], [ -1.1747, 53.32265 ], [ -1.17424, 53.32181 ], [ -1.17448, 53.32139 ], [ -1.18042, 53.32105 ], [ -1.18661, 53.31959 ], [ -1.19032, 53.31993 ], [ -1.19011, 53.3195 ], [ -1.19153, 53.31922 ], [ -1.19152, 53.31896 ], [ -1.19242, 53.31899 ], [ -1.19437, 53.31487 ], [ -1.1972, 53.31467 ], [ -1.19974, 53.31144 ], [ -1.20303, 53.30723 ], [ -1.20211, 53.30606 ], [ -1.20324, 53.30422 ], [ -1.20571, 53.30429 ], [ -1.20981, 53.30532 ], [ -1.2125, 53.30545 ], [ -1.21874, 53.30405 ], [ -1.21988, 53.30408 ], [ -1.22182, 53.3052 ], [ -1.23069, 53.30856 ], [ -1.2323, 53.30828 ], [ -1.23682, 53.30634 ], [ -1.23873, 53.30445 ], [ -1.2421, 53.30212 ], [ -1.24333, 53.30165 ], [ -1.24494, 53.30169 ], [ -1.24617, 53.30242 ], [ -1.24788, 53.30269 ], [ -1.25103, 53.30189 ], [ -1.25429, 53.30175 ], [ -1.25502, 53.30239 ], [ -1.25818, 53.30341 ], [ -1.26131, 53.30394 ], [ -1.26415, 53.3054 ], [ -1.26781, 53.30582 ], [ -1.26945, 53.30786 ], [ -1.26964, 53.3091 ], [ -1.27155, 53.30931 ], [ -1.2736, 53.31044 ], [ -1.27411, 53.31052 ], [ -1.27643, 53.30921 ], [ -1.28201, 53.30946 ], [ -1.28531, 53.31161 ], [ -1.29366, 53.31398 ], [ -1.29568, 53.31504 ], [ -1.29473, 53.31527 ], [ -1.29569, 53.31971 ], [ -1.29516, 53.32179 ], [ -1.29395, 53.32278 ], [ -1.29011, 53.32314 ], [ -1.29034, 53.32371 ], [ -1.28931, 53.32441 ], [ -1.28859, 53.32623 ], [ -1.29123, 53.32798 ], [ -1.29177, 53.3279 ], [ -1.29182, 53.3282 ], [ -1.29323, 53.32868 ], [ -1.29283, 53.32879 ], [ -1.29318, 53.32898 ], [ -1.29467, 53.32948 ], [ -1.29538, 53.33036 ], [ -1.29573, 53.33013 ], [ -1.2971, 53.33065 ], [ -1.29739, 53.33143 ], [ -1.29907, 53.33253 ], [ -1.30221, 53.33253 ], [ -1.30597, 53.33377 ], [ -1.3123, 53.33416 ], [ -1.3115, 53.33211 ], [ -1.30879, 53.33217 ], [ -1.30925, 53.33174 ], [ -1.31051, 53.33191 ], [ -1.31132, 53.33087 ], [ -1.31144, 53.33025 ], [ -1.31054, 53.32935 ], [ -1.31301, 53.32936 ], [ -1.31368, 53.32732 ], [ -1.31496, 53.32652 ], [ -1.31551, 53.32646 ], [ -1.31561, 53.32679 ], [ -1.31837, 53.32601 ], [ -1.32161, 53.3255 ], [ -1.32166, 53.32569 ], [ -1.3223, 53.32753 ], [ -1.32372, 53.32708 ], [ -1.32403, 53.32733 ], [ -1.32476, 53.32709 ], [ -1.32467, 53.32881 ], [ -1.32482, 53.33354 ], [ -1.32557, 53.33696 ], [ -1.32599, 53.34128 ], [ -1.32864, 53.3489 ], [ -1.33043, 53.34885 ], [ -1.33117, 53.34928 ], [ -1.33059, 53.35101 ], [ -1.33208, 53.35241 ], [ -1.3354, 53.35191 ], [ -1.33775, 53.35352 ], [ -1.34035, 53.3585 ], [ -1.34516, 53.3612 ], [ -1.34631, 53.36244 ], [ -1.35196, 53.36651 ], [ -1.36108, 53.36659 ], [ -1.36374, 53.37016 ], [ -1.36611, 53.37232 ], [ -1.37401, 53.37759 ], [ -1.37661, 53.3789 ], [ -1.38015, 53.38122 ], [ -1.38366, 53.38242 ], [ -1.38589, 53.38295 ], [ -1.39118, 53.38332 ], [ -1.38995, 53.38607 ], [ -1.38835, 53.38737 ], [ -1.38627, 53.38851 ], [ -1.38183, 53.39019 ], [ -1.38057, 53.39104 ], [ -1.37983, 53.39096 ], [ -1.37908, 53.39185 ], [ -1.37689, 53.39238 ], [ -1.3758, 53.39367 ], [ -1.37628, 53.39475 ], [ -1.37919, 53.39681 ], [ -1.37699, 53.39831 ], [ -1.37744, 53.39923 ], [ -1.38176, 53.40104 ], [ -1.38304, 53.40347 ], [ -1.38177, 53.40392 ], [ -1.38207, 53.4051 ], [ -1.38295, 53.40549 ], [ -1.38463, 53.40728 ], [ -1.38689, 53.41084 ], [ -1.38996, 53.41227 ], [ -1.39067, 53.41316 ], [ -1.39167, 53.41529 ], [ -1.38919, 53.4178 ], [ -1.38938, 53.41861 ], [ -1.39266, 53.41838 ], [ -1.39353, 53.42 ], [ -1.38442, 53.42054 ], [ -1.38233, 53.42104 ], [ -1.38233, 53.42153 ], [ -1.37966, 53.4224 ], [ -1.38044, 53.42417 ], [ -1.38164, 53.42492 ], [ -1.38172, 53.42545 ], [ -1.38172, 53.42521 ], [ -1.38236, 53.42539 ], [ -1.3873, 53.42512 ], [ -1.39622, 53.42386 ], [ -1.39634, 53.42436 ], [ -1.39687, 53.42435 ], [ -1.39729, 53.42482 ], [ -1.39832, 53.42462 ], [ -1.4039, 53.42277 ], [ -1.4085, 53.42035 ], [ -1.40972, 53.42149 ], [ -1.40995, 53.42276 ], [ -1.41144, 53.42334 ], [ -1.41227, 53.42466 ], [ -1.41577, 53.42723 ], [ -1.41581, 53.42771 ], [ -1.41639, 53.42792 ], [ -1.41808, 53.42986 ], [ -1.42567, 53.43393 ], [ -1.43334, 53.43828 ], [ -1.43655, 53.44053 ], [ -1.44032, 53.44412 ], [ -1.44293, 53.44728 ], [ -1.44425, 53.4508 ], [ -1.44426, 53.45452 ], [ -1.44371, 53.45565 ], [ -1.44493, 53.45712 ], [ -1.44525, 53.45864 ], [ -1.44774, 53.46195 ], [ -1.45522, 53.47175 ], [ -1.45679, 53.47356 ], [ -1.45176, 53.47624 ], [ -1.45044, 53.47739 ], [ -1.45078, 53.48224 ], [ -1.45221, 53.48493 ], [ -1.4439, 53.48829 ], [ -1.44202, 53.49058 ], [ -1.44093, 53.49111 ], [ -1.43561, 53.48844 ], [ -1.43301, 53.48796 ], [ -1.42797, 53.48585 ], [ -1.42607, 53.4874 ], [ -1.42554, 53.48868 ], [ -1.42434, 53.48957 ], [ -1.42278, 53.49027 ], [ -1.42211, 53.4898 ], [ -1.41992, 53.48984 ], [ -1.41982, 53.49127 ], [ -1.41918, 53.49109 ], [ -1.41707, 53.49221 ], [ -1.41518, 53.49251 ], [ -1.41555, 53.49323 ], [ -1.41685, 53.49361 ], [ -1.41649, 53.49443 ], [ -1.41174, 53.49621 ], [ -1.41081, 53.49691 ], [ -1.4097, 53.49848 ], [ -1.41215, 53.49924 ], [ -1.40863, 53.50332 ], [ -1.40807, 53.50326 ], [ -1.4072, 53.504 ], [ -1.40554, 53.50439 ], [ -1.40558, 53.50485 ], [ -1.39631, 53.5053 ], [ -1.39699, 53.5057 ], [ -1.38965, 53.5094 ], [ -1.38079, 53.51396 ], [ -1.37905, 53.51453 ], [ -1.37813, 53.5142 ], [ -1.37058, 53.51473 ], [ -1.36931, 53.51439 ], [ -1.36888, 53.51522 ] ] ] } },
{ "type": "Feature", "properties": { "objectid": 276.0, "lad16cd": "E08000019", "lad16nm": "Sheffield", "lad16nmw": null, "bng_e": 430511.0, "bng_n": 389736.0, "long": -1.54253995, "lat": 53.40357971, "st_areasha": 367862435.02311313, "st_lengths": 129225.57028341574 }, "geometry": { "type": "Polygon", "coordinates": [ [ [ -1.69846, 53.50254 ], [ -1.69337, 53.50019 ], [ -1.69071, 53.49946 ], [ -1.69052, 53.49984 ], [ -1.68898, 53.49969 ], [ -1.6888, 53.49912 ], [ -1.6874, 53.49904 ], [ -1.68447, 53.49947 ], [ -1.68398, 53.49889 ], [ -1.68112, 53.49993 ], [ -1.68045, 53.50052 ], [ -1.66905, 53.50067 ], [ -1.65884, 53.4984 ], [ -1.65509, 53.4968 ], [ -1.64798, 53.49482 ], [ -1.64126, 53.49408 ], [ -1.63899, 53.49337 ], [ -1.63383, 53.49239 ], [ -1.62445, 53.49213 ], [ -1.6211, 53.49183 ], [ -1.61495, 53.49057 ], [ -1.61446, 53.49315 ], [ -1.61151, 53.49321 ], [ -1.6096, 53.49226 ], [ -1.60935, 53.49167 ], [ -1.60659, 53.49291 ], [ -1.60237, 53.49159 ], [ -1.60223, 53.49191 ], [ -1.59036, 53.48999 ], [ -1.58702, 53.48816 ], [ -1.58229, 53.48757 ], [ -1.57635, 53.48617 ], [ -1.57489, 53.48602 ], [ -1.56915, 53.48647 ], [ -1.56576, 53.48604 ], [ -1.56642, 53.48586 ], [ -1.56521, 53.48548 ], [ -1.56506, 53.4849 ], [ -1.5623, 53.48437 ], [ -1.56116, 53.48444 ], [ -1.56107, 53.48396 ], [ -1.55927, 53.48357 ], [ -1.55774, 53.48224 ], [ -1.55736, 53.48027 ], [ -1.54966, 53.47849 ], [ -1.54657, 53.47463 ], [ -1.54422, 53.47275 ], [ -1.54363, 53.47267 ], [ -1.54449, 53.47221 ], [ -1.54812, 53.47133 ], [ -1.54537, 53.46985 ], [ -1.54234, 53.46502 ], [ -1.53947, 53.46258 ], [ -1.53905, 53.46172 ], [ -1.53986, 53.4616 ], [ -1.54032, 53.46105 ], [ -1.53945, 53.45773 ], [ -1.54055, 53.45698 ], [ -1.54026, 53.45616 ], [ -1.54114, 53.45592 ], [ -1.55138, 53.45545 ], [ -1.55255, 53.45278 ], [ -1.54873, 53.45113 ], [ -1.54738, 53.44989 ], [ -1.55044, 53.44763 ], [ -1.55121, 53.44615 ], [ -1.54811, 53.44479 ], [ -1.54618, 53.44189 ], [ -1.5408, 53.44098 ], [ -1.5374, 53.44088 ], [ -1.53498, 53.43994 ], [ -1.53399, 53.43861 ], [ -1.53293, 53.43832 ], [ -1.53217, 53.43834 ], [ -1.53194, 53.43872 ], [ -1.52772, 53.43855 ], [ -1.52636, 53.43907 ], [ -1.52554, 53.44026 ], [ -1.52459, 53.44049 ], [ -1.52375, 53.44131 ], [ -1.52324, 53.44308 ], [ -1.52092, 53.44435 ], [ -1.5205, 53.44496 ], [ -1.52067, 53.44579 ], [ -1.5198, 53.44712 ], [ -1.51916, 53.44728 ], [ -1.51833, 53.44932 ], [ -1.51653, 53.45029 ], [ -1.51317, 53.45142 ], [ -1.51493, 53.45387 ], [ -1.51818, 53.45724 ], [ -1.51671, 53.45794 ], [ -1.5174, 53.45833 ], [ -1.51503, 53.45964 ], [ -1.51631, 53.46059 ], [ -1.51486, 53.46181 ], [ -1.51481, 53.46367 ], [ -1.51178, 53.46576 ], [ -1.50786, 53.46662 ], [ -1.50758, 53.46844 ], [ -1.505, 53.47178 ], [ -1.50017, 53.47566 ], [ -1.49524, 53.48036 ], [ -1.49462, 53.48107 ], [ -1.49525, 53.48522 ], [ -1.49475, 53.48627 ], [ -1.49159, 53.48664 ], [ -1.48748, 53.48601 ], [ -1.48445, 53.4847 ], [ -1.47983, 53.48096 ], [ -1.47769, 53.47991 ], [ -1.47454, 53.47915 ], [ -1.4669, 53.47806 ], [ -1.46515, 53.4783 ], [ -1.4632, 53.47772 ], [ -1.46168, 53.47636 ], [ -1.46032, 53.47579 ], [ -1.45652, 53.47193 ], [ -1.45592, 53.47179 ], [ -1.45522, 53.47175 ], [ -1.44774, 53.46195 ], [ -1.44525, 53.45864 ], [ -1.44493, 53.45712 ], [ -1.44371, 53.45565 ], [ -1.44426, 53.45452 ], [ -1.44425, 53.4508 ], [ -1.44293, 53.44728 ], [ -1.44032, 53.44412 ], [ -1.43655, 53.44053 ], [ -1.43334, 53.43828 ], [ -1.42567, 53.43393 ], [ -1.41808, 53.42986 ], [ -1.41639, 53.42792 ], [ -1.41581, 53.42771 ], [ -1.41577, 53.42723 ], [ -1.41227, 53.42466 ], [ -1.41144, 53.42334 ], [ -1.40995, 53.42276 ], [ -1.40972, 53.42149 ], [ -1.4085, 53.42035 ], [ -1.4039, 53.42277 ], [ -1.39832, 53.42462 ], [ -1.39729, 53.42482 ], [ -1.39687, 53.42435 ], [ -1.39634, 53.42436 ], [ -1.39622, 53.42386 ], [ -1.3873, 53.42512 ], [ -1.38236, 53.42539 ], [ -1.38172, 53.42521 ], [ -1.38172, 53.42545 ], [ -1.38164, 53.42492 ], [ -1.38044, 53.42417 ], [ -1.37966, 53.4224 ], [ -1.38233, 53.42153 ], [ -1.38233, 53.42104 ], [ -1.38442, 53.42054 ], [ -1.39353, 53.42 ], [ -1.39266, 53.41838 ], [ -1.38938, 53.41861 ], [ -1.38919, 53.4178 ], [ -1.39167, 53.41529 ], [ -1.39067, 53.41316 ], [ -1.38996, 53.41227 ], [ -1.38689, 53.41084 ], [ -1.38463, 53.40728 ], [ -1.38295, 53.40549 ], [ -1.38207, 53.4051 ], [ -1.38177, 53.40392 ], [ -1.38304, 53.40347 ], [ -1.38176, 53.40104 ], [ -1.37744, 53.39923 ], [ -1.37699, 53.39831 ], [ -1.37919, 53.39681 ], [ -1.37628, 53.39475 ], [ -1.3758, 53.39367 ], [ -1.37689, 53.39238 ], [ -1.37908, 53.39185 ], [ -1.37983, 53.39096 ], [ -1.38057, 53.39104 ], [ -1.38183, 53.39019 ], [ -1.38627, 53.38851 ], [ -1.38835, 53.38737 ], [ -1.38995, 53.38607 ], [ -1.39118, 53.38332 ], [ -1.38589, 53.38295 ], [ -1.38366, 53.38242 ], [ -1.38015, 53.38122 ], [ -1.37661, 53.3789 ], [ -1.37401, 53.37759 ], [ -1.36611, 53.37232 ], [ -1.36374, 53.37016 ], [ -1.36108, 53.36659 ], [ -1.35196, 53.36651 ], [ -1.34631, 53.36244 ], [ -1.34516, 53.3612 ], [ -1.34035, 53.3585 ], [ -1.33775, 53.35352 ], [ -1.3354, 53.35191 ], [ -1.33208, 53.35241 ], [ -1.33059, 53.35101 ], [ -1.33117, 53.34928 ], [ -1.33043, 53.34885 ], [ -1.32864, 53.3489 ], [ -1.32599, 53.34128 ], [ -1.32557, 53.33696 ], [ -1.32482, 53.33354 ], [ -1.32467, 53.32881 ], [ -1.32766, 53.32913 ], [ -1.3283, 53.32897 ], [ -1.32877, 53.3277 ], [ -1.32813, 53.32733 ], [ -1.32816, 53.32681 ], [ -1.33242, 53.3235 ], [ -1.33281, 53.32293 ], [ -1.33222, 53.32246 ], [ -1.33231, 53.32206 ], [ -1.33456, 53.32102 ], [ -1.33452, 53.32033 ], [ -1.33658, 53.31796 ], [ -1.33655, 53.3166 ], [ -1.33767, 53.31587 ], [ -1.34026, 53.31553 ], [ -1.34163, 53.31608 ], [ -1.34089, 53.31699 ], [ -1.34305, 53.3179 ], [ -1.34731, 53.31855 ], [ -1.34724, 53.31887 ], [ -1.35347, 53.31911 ], [ -1.36178, 53.31849 ], [ -1.36295, 53.31757 ], [ -1.36192, 53.31577 ], [ -1.36262, 53.31504 ], [ -1.36417, 53.3152 ], [ -1.36545, 53.31588 ], [ -1.37165, 53.31608 ], [ -1.37413, 53.31725 ], [ -1.37704, 53.31742 ], [ -1.37815, 53.31709 ], [ -1.37961, 53.31723 ], [ -1.38062, 53.31699 ], [ -1.38366, 53.31783 ], [ -1.38435, 53.31758 ], [ -1.38508, 53.31778 ], [ -1.38674, 53.31763 ], [ -1.38686, 53.31804 ], [ -1.3873, 53.31788 ], [ -1.38786, 53.3184 ], [ -1.38926, 53.31873 ], [ -1.38993, 53.31851 ], [ -1.392, 53.32265 ], [ -1.39043, 53.32608 ], [ -1.3912, 53.32829 ], [ -1.39034, 53.33102 ], [ -1.39072, 53.33164 ], [ -1.38873, 53.33318 ], [ -1.38792, 53.33452 ], [ -1.38723, 53.3341 ], [ -1.38657, 53.33488 ], [ -1.38892, 53.33623 ], [ -1.38882, 53.33645 ], [ -1.38946, 53.33601 ], [ -1.3907, 53.33598 ], [ -1.4064, 53.3394 ], [ -1.40757, 53.3401 ], [ -1.40679, 53.34085 ], [ -1.40875, 53.34197 ], [ -1.41103, 53.34199 ], [ -1.41238, 53.3411 ], [ -1.41211, 53.34097 ], [ -1.41303, 53.33962 ], [ -1.41259, 53.33881 ], [ -1.41385, 53.33793 ], [ -1.41451, 53.33833 ], [ -1.41611, 53.33701 ], [ -1.42087, 53.33457 ], [ -1.42118, 53.33505 ], [ -1.42227, 53.33503 ], [ -1.4224, 53.33531 ], [ -1.4231, 53.33537 ], [ -1.42349, 53.33594 ], [ -1.42779, 53.33615 ], [ -1.43361, 53.33769 ], [ -1.43391, 53.33743 ], [ -1.43674, 53.33745 ], [ -1.44087, 53.33637 ], [ -1.44214, 53.33738 ], [ -1.44303, 53.33726 ], [ -1.4508, 53.33157 ], [ -1.45394, 53.33072 ], [ -1.45988, 53.33069 ], [ -1.45664, 53.32939 ], [ -1.45752, 53.32866 ], [ -1.45828, 53.32873 ], [ -1.45994, 53.3297 ], [ -1.4617, 53.32845 ], [ -1.46024, 53.32725 ], [ -1.45804, 53.32641 ], [ -1.45659, 53.3263 ], [ -1.45637, 53.32511 ], [ -1.45513, 53.32497 ], [ -1.45431, 53.32428 ], [ -1.45582, 53.32347 ], [ -1.45522, 53.32187 ], [ -1.45728, 53.32177 ], [ -1.45726, 53.32071 ], [ -1.45973, 53.31973 ], [ -1.45997, 53.32008 ], [ -1.46167, 53.32021 ], [ -1.46322, 53.31979 ], [ -1.46721, 53.31801 ], [ -1.46787, 53.31716 ], [ -1.46962, 53.31719 ], [ -1.47439, 53.31849 ], [ -1.47692, 53.31928 ], [ -1.4796, 53.31933 ], [ -1.47969, 53.31872 ], [ -1.4825, 53.31888 ], [ -1.48463, 53.31852 ], [ -1.48472, 53.31875 ], [ -1.49107, 53.31738 ], [ -1.49233, 53.3174 ], [ -1.49309, 53.31673 ], [ -1.49613, 53.31639 ], [ -1.50071, 53.3159 ], [ -1.50213, 53.31758 ], [ -1.51049, 53.31605 ], [ -1.51526, 53.31379 ], [ -1.5159, 53.31341 ], [ -1.51613, 53.3126 ], [ -1.51734, 53.31221 ], [ -1.51911, 53.3123 ], [ -1.5212, 53.31286 ], [ -1.52155, 53.31277 ], [ -1.52163, 53.31174 ], [ -1.52418, 53.31246 ], [ -1.52579, 53.3121 ], [ -1.52632, 53.31147 ], [ -1.52619, 53.3104 ], [ -1.5282, 53.31033 ], [ -1.52867, 53.31088 ], [ -1.5289, 53.3107 ], [ -1.52941, 53.31092 ], [ -1.53003, 53.31044 ], [ -1.53012, 53.31067 ], [ -1.53103, 53.31042 ], [ -1.53121, 53.31065 ], [ -1.53146, 53.30999 ], [ -1.53201, 53.3099 ], [ -1.53184, 53.30875 ], [ -1.53285, 53.30846 ], [ -1.53341, 53.30765 ], [ -1.53309, 53.30764 ], [ -1.53341, 53.30717 ], [ -1.53297, 53.30687 ], [ -1.53337, 53.30649 ], [ -1.53312, 53.30622 ], [ -1.53458, 53.30552 ], [ -1.53499, 53.30572 ], [ -1.53504, 53.30526 ], [ -1.53679, 53.30508 ], [ -1.53677, 53.30475 ], [ -1.53901, 53.30483 ], [ -1.53924, 53.30453 ], [ -1.54094, 53.30468 ], [ -1.54093, 53.30494 ], [ -1.54166, 53.30467 ], [ -1.5426, 53.30529 ], [ -1.54686, 53.30665 ], [ -1.54908, 53.30698 ], [ -1.5504, 53.30623 ], [ -1.55354, 53.3059 ], [ -1.55479, 53.30609 ], [ -1.55685, 53.30547 ], [ -1.55846, 53.30532 ], [ -1.55793, 53.30576 ], [ -1.56183, 53.3066 ], [ -1.55969, 53.30824 ], [ -1.55912, 53.30974 ], [ -1.55655, 53.31144 ], [ -1.55575, 53.31155 ], [ -1.55849, 53.31372 ], [ -1.56018, 53.3137 ], [ -1.56136, 53.31582 ], [ -1.56226, 53.3158 ], [ -1.56409, 53.31363 ], [ -1.56609, 53.31357 ], [ -1.5675, 53.31476 ], [ -1.57049, 53.31437 ], [ -1.57391, 53.31338 ], [ -1.57316, 53.31277 ], [ -1.58053, 53.31174 ], [ -1.58124, 53.31431 ], [ -1.583, 53.31572 ], [ -1.58129, 53.31643 ], [ -1.57892, 53.3167 ], [ -1.5849, 53.32159 ], [ -1.5869, 53.3214 ], [ -1.58729, 53.32088 ], [ -1.58677, 53.31993 ], [ -1.59038, 53.3183 ], [ -1.59909, 53.31132 ], [ -1.5992, 53.31461 ], [ -1.60067, 53.31567 ], [ -1.60061, 53.31697 ], [ -1.60153, 53.31821 ], [ -1.60389, 53.31914 ], [ -1.6092, 53.32266 ], [ -1.61943, 53.31826 ], [ -1.62549, 53.31642 ], [ -1.62823, 53.3164 ], [ -1.63273, 53.32084 ], [ -1.62684, 53.32537 ], [ -1.62792, 53.32585 ], [ -1.62726, 53.32855 ], [ -1.62643, 53.32922 ], [ -1.62358, 53.33046 ], [ -1.6237, 53.33117 ], [ -1.62209, 53.33168 ], [ -1.62211, 53.33367 ], [ -1.61951, 53.33538 ], [ -1.6168, 53.33638 ], [ -1.61574, 53.33782 ], [ -1.61437, 53.33884 ], [ -1.61214, 53.34162 ], [ -1.6123, 53.34322 ], [ -1.60881, 53.3433 ], [ -1.60764, 53.34271 ], [ -1.60425, 53.34241 ], [ -1.60158, 53.34261 ], [ -1.59146, 53.34495 ], [ -1.59055, 53.34592 ], [ -1.61563, 53.35085 ], [ -1.6256, 53.35206 ], [ -1.62835, 53.3538 ], [ -1.63059, 53.35616 ], [ -1.65788, 53.36418 ], [ -1.66395, 53.36689 ], [ -1.66391, 53.36933 ], [ -1.66271, 53.37316 ], [ -1.66329, 53.37425 ], [ -1.66219, 53.37525 ], [ -1.66178, 53.37629 ], [ -1.65602, 53.38171 ], [ -1.65353, 53.38485 ], [ -1.65382, 53.39191 ], [ -1.65472, 53.39303 ], [ -1.65901, 53.3935 ], [ -1.66511, 53.39353 ], [ -1.66809, 53.39307 ], [ -1.67298, 53.39694 ], [ -1.68183, 53.40178 ], [ -1.69452, 53.40116 ], [ -1.70497, 53.40506 ], [ -1.70397, 53.40581 ], [ -1.70413, 53.40829 ], [ -1.703, 53.41066 ], [ -1.70385, 53.41263 ], [ -1.70323, 53.41372 ], [ -1.70395, 53.41491 ], [ -1.70853, 53.41734 ], [ -1.71088, 53.41751 ], [ -1.71402, 53.41907 ], [ -1.71678, 53.4193 ], [ -1.71832, 53.41943 ], [ -1.72335, 53.41892 ], [ -1.72515, 53.41764 ], [ -1.72995, 53.41599 ], [ -1.7324, 53.41718 ], [ -1.73508, 53.41969 ], [ -1.73976, 53.42099 ], [ -1.74501, 53.42529 ], [ -1.74672, 53.42616 ], [ -1.74626, 53.42778 ], [ -1.74472, 53.42876 ], [ -1.74412, 53.42957 ], [ -1.74427, 53.4313 ], [ -1.7449, 53.43242 ], [ -1.74856, 53.4356 ], [ -1.74973, 53.43912 ], [ -1.74931, 53.43987 ], [ -1.74711, 53.441 ], [ -1.74682, 53.44177 ], [ -1.74546, 53.44269 ], [ -1.74367, 53.44501 ], [ -1.74391, 53.44639 ], [ -1.74466, 53.44731 ], [ -1.74428, 53.44845 ], [ -1.74657, 53.45127 ], [ -1.74621, 53.45207 ], [ -1.74713, 53.45428 ], [ -1.74666, 53.4555 ], [ -1.74817, 53.45733 ], [ -1.74708, 53.45794 ], [ -1.74702, 53.45926 ], [ -1.74622, 53.46 ], [ -1.74649, 53.46071 ], [ -1.74526, 53.46199 ], [ -1.74682, 53.46341 ], [ -1.74783, 53.46406 ], [ -1.75215, 53.46492 ], [ -1.75366, 53.46485 ], [ -1.7542, 53.4643 ], [ -1.75571, 53.46392 ], [ -1.75819, 53.46389 ], [ -1.7594, 53.46356 ], [ -1.76469, 53.46395 ], [ -1.76844, 53.46477 ], [ -1.76995, 53.46573 ], [ -1.7705, 53.46693 ], [ -1.77272, 53.46702 ], [ -1.7762, 53.46833 ], [ -1.77704, 53.46988 ], [ -1.77804, 53.47045 ], [ -1.77797, 53.47248 ], [ -1.77906, 53.47422 ], [ -1.78081, 53.47497 ], [ -1.7857, 53.47572 ], [ -1.78645, 53.47535 ], [ -1.79071, 53.47569 ], [ -1.7909, 53.47601 ], [ -1.79111, 53.47578 ], [ -1.79233, 53.47668 ], [ -1.79276, 53.47651 ], [ -1.79342, 53.47711 ], [ -1.79432, 53.47726 ], [ -1.79532, 53.4784 ], [ -1.79685, 53.47893 ], [ -1.79833, 53.47867 ], [ -1.80147, 53.48099 ], [ -1.79197, 53.48199 ], [ -1.79045, 53.48251 ], [ -1.78726, 53.48438 ], [ -1.78552, 53.48478 ], [ -1.78365, 53.4848 ], [ -1.78042, 53.48437 ], [ -1.7737, 53.4825 ], [ -1.77105, 53.48243 ], [ -1.76599, 53.48108 ], [ -1.76398, 53.48141 ], [ -1.7629, 53.48111 ], [ -1.7619, 53.48125 ], [ -1.76052, 53.48076 ], [ -1.75746, 53.48105 ], [ -1.75414, 53.48065 ], [ -1.75111, 53.47992 ], [ -1.74899, 53.47986 ], [ -1.74631, 53.47899 ], [ -1.7448, 53.47898 ], [ -1.74333, 53.47934 ], [ -1.7423, 53.47904 ], [ -1.74164, 53.47825 ], [ -1.73969, 53.47722 ], [ -1.73871, 53.47715 ], [ -1.73775, 53.47765 ], [ -1.73634, 53.47938 ], [ -1.73646, 53.48061 ], [ -1.73767, 53.48157 ], [ -1.73612, 53.48379 ], [ -1.73539, 53.4866 ], [ -1.73358, 53.48809 ], [ -1.73198, 53.4909 ], [ -1.73037, 53.49132 ], [ -1.72281, 53.49153 ], [ -1.72143, 53.49198 ], [ -1.7215, 53.49263 ], [ -1.72004, 53.49235 ], [ -1.71952, 53.49293 ], [ -1.71726, 53.49394 ], [ -1.71608, 53.49408 ], [ -1.71566, 53.49547 ], [ -1.71365, 53.49667 ], [ -1.71407, 53.49786 ], [ -1.71229, 53.4987 ], [ -1.7128, 53.49962 ], [ -1.71185, 53.49981 ], [ -1.71101, 53.50126 ], [ -1.70728, 53.50136 ], [ -1.70607, 53.50169 ], [ -1.70547, 53.5011 ], [ -1.70445, 53.50173 ], [ -1.7033, 53.50185 ], [ -1.70298, 53.5029 ], [ -1.70109, 53.50312 ], [ -1.69846, 53.50254 ] ] ] } }
]
}
